COSMOS 2251 DEB         
1 35898U 93036AUM 26061.91805965  .00009242  00000+0  76926-3 0  9991
2 35898  73.9913 135.1875 0081180 259.5786 224.0905 14.96203140680081
COSMOS 2251 DEB         
1 35901U 93036AUQ 26062.41284500  .00119078  00000+0  53748-2 0  9993
2 35901  74.0063 215.2278 0001792 345.5252  40.7842 15.20399634873478
COSMOS 2251 DEB         
1 35902U 93036AUR 26060.48561524  .00002240  00000+0  87332-3 0  9992
2 35902  73.9812  91.5985 0102783 191.4251 168.4565 14.27401531622533
COSMOS 2251 DEB         
1 35905U 93036AUU 26064.28649346  .00010555  00000+0  77707-3 0  9999
2 35905  74.0317  43.0245 0084949 102.0037 259.0688 15.00530799898205
COSMOS 2251 DEB         
1 35959U 93036AUZ 26065.59495787  .00000405  00000+0  15352-3 0  9992
2 35959  74.0332 158.5499 0023147 224.1920 135.7384 14.34203114861302
COSMOS 2251 DEB         
1 35961U 93036AVB 26060.68942373  .00004081  00000+0  21300-2 0  9991
2 35961  73.9258  65.2630 0190505 340.3294  19.0559 14.05894038637914
COSMOS 2251 DEB         
1 35979U 93036AVV 26060.04996527  .00004689  00000+0  67099-3 0  9990
2 35979  74.0083  85.0523 0059326 201.7003 189.0511 14.75697117897881
COSMOS 2251 DEB         
1 35980U 93036AVW 26064.03524102  .00007392  00000+0  14994-2 0  9990
2 35980  73.9135 324.4577 0051117  81.2804 279.4146 14.60536492626877
COSMOS 2251 DEB         
1 35982U 93036AVY 26065.31050190  .00004385  00000+0  82799-3 0  9993
2 35982  74.0585 186.8714 0065713 233.7807 125.7275 14.63365454873889
COSMOS 2251 DEB         
1 35987U 93036AWD 26065.26952000  .00004233  00000+0  12338-2 0  9996
2 35987  74.0000 171.0818 0050118 277.6520  81.8946 14.43733721622703
COSMOS 2251 DEB         
1 35989U 93036AWF 26061.51866094  .00000581  00000+0  20336-3 0  9999
2 35989  74.0375 137.1171 0022796 206.1701 153.8303 14.37210901883253
COSMOS 2251 DEB         
1 35993U 93036AWK 26054.05408999  .00004484  00000+0  81887-3 0  9995
2 35993  74.0143 193.3750 0030174 358.7265   1.3821 14.65956500615029
COSMOS 2251 DEB         
1 35996U 93036AWN 26063.96513578  .00011414  00000+0  62628-3 0  9991
2 35996  74.0112 293.4130 0084237   0.8697 359.2625 15.11153812735673
COSMOS 2251 DEB         
1 35997U 93036AWP 26065.60793201  .00004259  00000+0  10622-2 0  9993
2 35997  74.0451  29.4714 0012372  87.1603 273.0974 14.51874084721018
COSMOS 2251 DEB         
1 36000U 93036AWS 26059.31363935  .00024159  00000+0  22039-2 0  9993
2 36000  73.9908 290.6282 0027291  25.1174 335.1330 14.94728509613273
COSMOS 2251 DEB         
1 36005U 93036AWX 26066.05120758  .00000593  00000+0  16533-3 0  9990
2 36005  74.0260 296.2426 0060056  51.5689 309.0839 14.47486350888049
COSMOS 2251 DEB         
1 36045U 93036AXG 26065.83954663  .00016402  00000+0  25460-2 0  9993
2 36045  73.7605 253.0153 0046934 253.1039 106.4983 14.72361007 96250
COSMOS 2251 DEB         
1 36046U 93036AXH 26054.98807073  .00002410  00000+0  43697-3 0  9997
2 36046  74.0112 135.3155 0058515 264.2313 276.4308 14.65767134650762
COSMOS 2251 DEB         
1 36047U 93036AXJ 26065.61134809  .00051550  00000+0  38817-2 0  9996
2 36047  74.0326 163.9341 0005304 249.4243 110.6376 15.02231837671966
COSMOS 2251 DEB         
1 36048U 93036AXK 26066.20017304  .00000756  00000+0  25754-3 0  9992
2 36048  74.0567 143.9453 0026192 179.7150 210.5773 14.38010606867163
COSMOS 2251 DEB         
1 36049U 93036AXL 26064.67432332  .00006232  00000+0  12119-2 0  9999
2 36049  74.0321 320.1818 0008968  22.3609 337.7947 14.63294831865771
COSMOS 2251 DEB         
1 36050U 93036AXM 26064.56483038  .00012530  00000+0  87287-3 0  9995
2 36050  74.0328  25.1193 0082461  82.9007 278.1549 15.02698386682783
COSMOS 2251 DEB         
1 36053U 93036AXQ 26064.20123734  .00009585  00000+0  20479-2 0  9998
2 36053  73.8743 354.2884 0033398 282.9157  76.8277 14.58580523886465
COSMOS 2251 DEB         
1 36058U 93036AXV 26062.81254674  .00002923  00000+0  61759-3 0  9992
2 36058  74.0198 238.8756 0045056 350.8075   9.2260 14.59188824672936
COSMOS 2251 DEB         
1 36060U 93036AXX 26062.39010101  .00001149  00000+0  35625-3 0  9995
2 36060  74.0272  84.9788 0014699 174.6913 185.4402 14.42212841861720
COSMOS 2251 DEB         
1 36061U 93036AXY 26064.07812351  .00001088  00000+0  39655-3 0  9999
2 36061  74.0233 209.0269 0039428 277.7047  81.9628 14.33874557662842
COSMOS 2251 DEB         
1 36073U 93036AYL 26065.52314663  .00000891  00000+0  32040-3 0  9998
2 36073  74.0341 168.9602 0024930 222.4578 137.4647 14.35079196714098
COSMOS 2251 DEB         
1 36074U 93036AYM 26065.31552398  .00005012  00000+0  14411-2 0  9996
2 36074  73.9927 184.5991 0045000 259.5687 100.0398 14.44471780871161
COSMOS 2251 DEB         
1 36366U 93036AYT 26064.53109472  .00004402  00000+0  15124-2 0  9998
2 36366  74.0639 121.8582 0084785 132.0739 228.7666 14.34320253874754
COSMOS 2251 DEB         
1 36367U 93036AYU 26040.94185955  .00001494  00000+0  99798-3 0  9996
2 36367  74.1017 131.5377 0260465 191.0318 168.5033 13.86656940583505
COSMOS 2251 DEB         
1 36369U 93036AYW 26063.83743863  .00012496  00000+0  18310-2 0  9993
2 36369  74.0282 270.3454 0011429 325.6872  34.3563 14.75602519871322
COSMOS 2251 DEB         
1 36371U 93036AYY 26057.55756626  .00014222  00000+0  22282-2 0  9991
2 36371  74.0146  13.9369 0006486  17.5795 342.5600 14.72714315725608
COSMOS 2251 DEB         
1 36379U 93036AZG 26065.53255888  .00000981  00000+0  34065-3 0  9990
2 36379  74.0127 152.7335 0047767 262.5892 112.8390 14.36241051660319
COSMOS 2251 DEB         
1 36385U 93036AZN 26065.23778293  .00010529  00000+0  13554-2 0  9992
2 36385  73.9718 350.9682 0136544 146.5767 214.4121 14.74767842863321
COSMOS 2251 DEB         
1 36420U 93036AZT 26065.52023443  .00000472  00000+0  16770-3 0  9994
2 36420  74.0365 121.4601 0018677 197.2746 229.5136 14.36990316862402
COSMOS 2251 DEB         
1 36430U 93036BAD 26043.54536314  .00000870  00000+0  34418-3 0  9990
2 36430  74.0059 356.3216 0095242 132.6405 228.2823 14.27947772654396
COSMOS 2251 DEB         
1 36437U 93036BAL 26063.73519232  .00015302  00000+0  24019-2 0  9991
2 36437  73.9390 233.6946 0020608  80.4154 279.9345 14.72491053672579
COSMOS 2251 DEB         
1 36439U 93036BAN 26061.31995188  .00000923  00000+0  87757-3 0  9995
2 36439  73.9671 269.6643 0426044 226.2068 130.3061 13.48095690596854
COSMOS 2251 DEB         
1 36441U 93036BAQ 26061.75650820  .00011967  00000+0  67127-3 0  9996
2 36441  73.8355 183.1226 0108476 266.0547  92.8237 15.08453793881711
COSMOS 2251 DEB         
1 36451U 93036BBA 26062.02866009  .00002169  00000+0  88602-3 0  9991
2 36451  73.9545 191.0672 0184714 356.8091   3.1857 14.19093887853647
COSMOS 2251 DEB         
1 36453U 93036BBC 26064.78653662  .00004925  00000+0  11506-2 0  9997
2 36453  73.9273 354.6041 0071940 239.8798 148.8545 14.53374648856744
COSMOS 2251 DEB         
1 36459U 93036BBJ 26057.13961792  .00003257  00000+0  12580-2 0  9990
2 36459  74.0464 223.5036 0115154 301.5673  57.4272 14.26981616 89577
COSMOS 2251 DEB         
1 36470U 93036BBV 26058.76177771  .00071068  00000+0  34538-2 0  9991
2 36470  73.8349  92.9986 0028034 278.5786  81.2232 15.17732907672587
COSMOS 2251 DEB         
1 36528U 93036BCN 26047.60264214  .00001435  00000+0  53556-3 0  9998
2 36528  74.0163  25.1656 0082039  57.9736 302.9350 14.30929428653694
COSMOS 2251 DEB         
1 36533U 93036BCT 26066.02035602  .00001605  00000+0  41467-3 0  9995
2 36533  74.0122 316.3257 0046969  85.1304 275.5217 14.50133889857067
COSMOS 2251 DEB         
1 36539U 93036BCZ 26065.97417743  .00003305  00000+0  69231-3 0  9992
2 36539  74.0206 254.4083 0026815  13.9063 346.2835 14.59924194851763
COSMOS 2251 DEB         
1 36540U 93036BDA 26065.26142216  .00006879  00000+0  14512-2 0  9996
2 36540  74.0308  21.3145 0011311  73.4920 286.7487 14.59545725872286
COSMOS 2251 DEB         
1 36550U 93036BDL 26065.32139033  .00002209  00000+0  88179-3 0  9991
2 36550  74.0437  41.5005 0075109  71.9573 288.9741 14.27532812857885
COSMOS 2251 DEB         
1 36551U 93036BDM 26065.35606639  .00039390  00000+0  25769-2 0  9992
2 36551  73.8836 202.0093 0041788 132.4659 228.0076 15.06855385681894
COSMOS 2251 DEB         
1 36557U 93036BDT 26064.69248108  .00023662  00000+0  29585-2 0  9992
2 36557  73.9811 322.2122 0019665 101.7210 258.6175 14.82103282351240
COSMOS 2251 DEB         
1 36558U 93036BDU 26064.79851283  .00005070  00000+0  11554-2 0  9998
2 36558  74.0459 357.1974 0010346  64.2787 295.9443 14.56066278864775
COSMOS 2251 DEB         
1 36559U 93036BDV 26065.44926720  .00010304  00000+0  56024-2 0  9998
2 36559  74.1276 226.5567 0259916 239.7539 117.7635 13.96598128822622
COSMOS 2251 DEB         
1 36614U 93036BEC 26063.26668117  .00010623  00000+0  21425-2 0  9992
2 36614  74.0242  18.6513 0012390  66.0433 294.2029 14.61498176668030
COSMOS 2251 DEB         
1 36622U 93036BEL 26054.53029146  .00004528  00000+0  62497-3 0  9996
2 36622  74.0161   2.6562 0065484 120.9498 239.8134 14.76968215678247
COSMOS 2251 DEB         
1 36632U 93036BEW 26053.60885327  .00002661  00000+0  78680-3 0  9992
2 36632  74.0025 158.5593 0034937 253.8426 105.8884 14.43608641662524
COSMOS 2251 DEB         
1 37084U 93036BFE 26066.13778228  .00010827  00000+0  74472-3 0  9995
2 37084  74.0306 349.3261 0092205  46.4493 314.4305 15.02517078675341
COSMOS 2251 DEB         
1 37089U 93036BFK 26064.05688876  .00015024  00000+0  31251-2 0  9999
2 37089  74.0391 350.1219 0129108  70.2090 291.2940 14.54905240673066
COSMOS 2251 DEB         
1 37094U 93036BFQ 26049.22443480  .00003954  00000+0  12532-2 0  9997
2 37094  74.1128 357.4013 0084952 304.6936  54.6234 14.38322796854769
COSMOS 2251 DEB         
1 37095U 93036BFR 26061.29822298  .00001782  00000+0  98013-3 0  9993
2 37095  73.8479  49.7342 0188031  93.7026 268.5631 14.03767007637520
